satname,norad_id,inclination_deg,eccentricity,mean_motion_rev_per_day,perigee_km,apogee_km,l1,l2
STARLINK-1480,45741,53.0523,0.0001482,15.06399546,546.1866125207398,548.2392862457373,1 45741U 20038M   25309.09715861  .00000709  00000+0  66485-4 0  9998,2 45741  53.0523  75.9341 0001482  82.6637 277.4520 15.06399546297426
STARLINK-1500,45744,53.0412,0.0002024,15.27733834,481.19988951400865,483.9771111965538,1 45744U 20038Q   25308.68589008  .00022893  00000+0  84382-3 0  9990,2 45744  53.0412  55.9467 0002024 205.6634 154.4264 15.27733834297660
STARLINK-1504,45746,53.0298,0.0001751,15.40611002,443.1102711615449,445.4994903081788,1 45746U 20038S   25308.59281661  .00030506  00000+0  74487-3 0  9991,2 45746  53.0298  20.5965 0001751 244.5355 115.5467 15.40611002298147
STARLINK-1506,45747,53.06,0.000192,15.2138951,500.32755684671065,502.96939446936267,1 45747U 20038T   25308.46225681  .00009555  00000+0  43450-3 0  9994,2 45747  53.0600  59.6685 0001920 230.2256 129.8571 15.21389510297594
STARLINK-1464,45751,53.0551,0.0002088,15.0639692,545.7749829608374,548.6670124606817,1 45751U 20038X   25309.03266351  .00001430  00000+0  11487-3 0  9991,2 45751  53.0551  56.2244 0002088  89.0732 271.0497 15.06396920297697
STARLINK-1477,45754,53.0541,0.000137,15.06940501,544.6069495049505,546.5040412486851,1 45754U 20038AA  25308.71431587  .00030017  00000+0  19962-2 0  9991,2 45754  53.0541  57.6360 0001370  36.0911 324.0170 15.06940501297649
STARLINK-1478,45755,53.056,0.000124,15.06418575,546.2958926615747,548.0133649855225,1 45755U 20038AB  25308.99948064 -.00001217  00000+0 -62804-4 0  9992,2 45755  53.0560  56.3705 0001240  88.8507 271.2624 15.06418575297673
STARLINK-1484,45756,53.0158,0.0002545,15.61472028,381.6834422786869,385.12506677724195,1 45756U 20038AC  25309.32169215  .00130948  00000+0  14849-2 0  9990,2 45756  53.0158 318.6928 0002545  15.7639 344.3452 15.61472028299073
STARLINK-1493,45759,53.0533,0.0001464,15.06414284,546.1539152617024,548.1816445012519,1 45759U 20038AF  25308.72302492  .00003987  00000+0  28627-3 0  9994,2 45759  53.0533  57.6132 0001464  84.2431 275.8725 15.06414284297630
STARLINK-1494,45760,53.0561,0.0002867,15.51681652,409.8691643263819,413.7625232870205,1 45760U 20038AG  25308.98103284  .00032802  00000+0  54739-3 0  9993,2 45760  53.0561  40.1267 0002867  26.4840 333.6315 15.51681652297913
STARLINK-1502,45764,53.0547,0.0001351,15.06411285,546.2413613370172,548.1125811720503,1 45764U 20038AL  25308.68985853  .00001140  00000+0  95413-4 0  9990,2 45764  53.0547  57.7619 0001351  91.0623 269.0521 15.06411285297644
STARLINK-1470,45772,53.052,0.0003044,15.18018432,509.73274041008517,513.9273523479214,1 45772U 20038AU  25308.64600607  .00011581  00000+0  57676-3 0  9994,2 45772  53.0520  30.0944 0003044 268.3582  91.7063 15.18018432298027
STARLINK-1482,45773,53.0569,9.13e-05,15.06416967,546.5272774394016,547.7918365907135,1 45773U 20038AV  25308.98659098  .00006437  00000+0  45041-3 0  9997,2 45773  53.0569  36.4310 0000913  68.7698 291.3388 15.06416967297962
STARLINK-1496,45780,53.055,0.0001198,15.06398391,546.3868319479107,548.0461466439456,1 45780U 20038BC  25308.95340247 -.00000934  00000+0 -43845-4 0  9994,2 45780  53.0550  36.5767 0001198  97.2045 262.9080 15.06398391297947
STARLINK-1497,45781,53.039,0.0006307,15.55317122,396.9552041224333,405.5066988564431,1 45781U 20038BD  25309.33336806  .00117222  00000+0  16784-2 0  9991,2 45781  53.0390 338.5750 0006307 315.1572 121.7306 15.55317122  5926
STARLINK-1510,45784,53.032,0.0002943,15.71574932,352.41392274644204,356.37669126234505,1 45784U 20038BG  25309.33336806  .00226921  00000+0  16900-2 0  9991,2 45784  53.0320 314.2099 0002943  59.7801 169.6023 15.71574932  5926
STARLINK-1513,45786,53.056,0.0001227,15.06399803,546.3624213728281,548.0619020571121,1 45786U 20038BJ  25308.98289636  .00001071  00000+0  90812-4 0  9994,2 45786  53.0560  36.4494 0001227  92.7118 267.4011 15.06399803297969
STARLINK-1522,46027,53.0545,0.0002231,15.06398621,545.6707381716933,548.7608305840831,1 46027U 20055A   25309.22893199 -.00002468  00000+0 -14680-3 0  9996,2 46027  53.0545 325.3426 0002231  88.0825 272.0420 15.06398621290129
STARLINK-1523,46028,53.056,0.0001493,15.06392489,546.2006201905251,548.2685361437652,1 46028U 20055B   25309.24368507 -.00002003  00000+0 -11566-3 0  9994,2 46028  53.0560 325.2812 0001493  91.7908 268.3252 15.06392489290146
STARLINK-1526,46029,53.0551,0.0002966,15.06399457,545.1591632796799,549.2672810314625,1 46029U 20055C   25309.23630434  .00000344  00000+0  42050-4 0  9992,2 46029  53.0551 325.3084 0002966 142.2528 217.8670 15.06399457290139
STARLINK-1555,46032,53.0565,0.000175,15.06396519,546.0102888577894,548.4341645871427,1 46032U 20055F   25309.28790774 -.00002946  00000+0 -17894-3 0  9994,2 46032  53.0565 325.0812 0001750 115.7495 244.3675 15.06396519290149
STARLINK-1556,46033,53.054,0.0001355,15.06400396,546.2719596904308,548.1487288207245,1 46033U 20055G   25309.26947604 -.00001689  00000+0 -94519-4 0  9992,2 46033  53.0540 325.1626 0001355 100.0562 260.0580 15.06400396290116
STARLINK-1557,46034,53.0552,0.0001283,15.06397943,546.3293393253498,548.1063853830301,1 46034U 20055H   25309.27317010 -.00002680  00000+0 -16113-3 0  9991,2 46034  53.0552 325.1438 0001283  95.2384 264.8751 15.06397943290113
STARLINK-1558,46035,53.0552,0.000137,15.06395796,546.275668105116,548.1732171403946,1 46035U 20055J   25309.28054061 -.00001966  00000+0 -11311-3 0  9998,2 46035  53.0552 325.1138 0001370  98.6989 261.4156 15.06395796290145
STARLINK-1560,46036,53.0543,0.0001389,15.06394036,546.267903345979,548.1917702532428,1 46036U 20055K   25309.26579708 -.00002155  00000+0 -12585-3 0  9992,2 46036  53.0543 325.1823 0001389  98.6397 261.4750 15.06394036290146
STARLINK-1567,46038,53.055,0.0001554,15.06398986,546.1384660551275,548.2908653528284,1 46038U 20055M   25309.27684953 -.00003176  00000+0 -19441-3 0  9996,2 46038  53.0550 325.1303 0001554 105.3552 254.7609 15.06398986290137
STARLINK-1569,46039,53.0571,0.0001976,15.06394827,545.8589604756926,548.5958644915054,1 46039U 20055N   25309.28422602 -.00001319  00000+0 -69628-4 0  9999,2 46039  53.0571 325.1023 0001976 108.7708 251.3496 15.06394827290135
STARLINK-1582,46043,53.0543,0.0001809,15.06397153,545.9674864643748,548.47308072958,1 46043U 20055S   25309.22524960 -.00001528  00000+0 -83679-4 0  9992,2 46043  53.0543 325.3622 0001809  88.3853 271.7343 15.06397153290126
